TIANQI-37               
1 67476U 26010A   26025.14362324  .00000294  00000+0  22210-3 0  9993
2 67476  44.9835   1.0721 0010517 351.3696   8.6960 14.14271836  1325
TIANQI-38               
1 67477U 26010B   26025.14263255  .00000292  00000+0  22061-3 0  9999
2 67477  44.9799   1.0643 0011017 353.9868   6.0837 14.14422395  1326
TIANQI-39               
1 67478U 26010C   26025.14196749  .00000302  00000+0  22545-3 0  9992
2 67478  44.9845   1.0627 0010940 358.0989   1.9806 14.14524465  1326
TIANQI-40               
1 67479U 26010D   26025.14188199  .00000294  00000+0  22144-3 0  9998
2 67479  44.9851   1.0625 0011691 354.3115   5.7589 14.14536800  1322
TRANSPORTER-15DT        
1 67483U 25276DT  26025.16590995  .00002804  00000+0  24429-3 0  9996
2 67483  97.5428 100.7902 0010090 249.1248 110.8895 14.97640694  1209
STARLINK-36551          
1 67493U 26012A   26019.01773773 -.00002725  86142-5  00000+0 0  9995
2 67493  43.0100 248.3700 0007700 319.9700  13.3500 16.05267929    16
STARLINK-36396          
1 67494U 26012B   26019.01773773 -.00002725  86142-5  00000+0 0  9996
2 67494  43.0100 248.3700 0007700 319.9700  13.3500 16.05267929    17
STARLINK-36550          
1 67495U 26012C   26019.01773773 -.00002725  86142-5  00000+0 0  9997
2 67495  43.0100 248.3700 0007700 319.9700  13.3500 16.05267929    18
STARLINK-36534          
1 67496U 26012D   26019.01773773 -.00002725  86142-5  00000+0 0  9998
2 67496  43.0100 248.3700 0007700 319.9700  13.3500 16.05267929    19
STARLINK-36555          
1 67497U 26012E   26019.01773773 -.00002725  86142-5  00000+0 0  9999
2 67497  43.0100 248.3700 0007700 319.9700  13.3500 16.05267929    10
STARLINK-36081          
1 67498U 26012F   26019.01773773 -.00002725  86142-5  00000+0 0  9990
2 67498  43.0100 248.3700 0007700 319.9700  13.3500 16.05267929    11
STARLINK-36558          
1 67499U 26012G   26019.01773773 -.00002725  86142-5  00000+0 0  9991
2 67499  43.0100 248.3700 0007700 319.9700  13.3500 16.05267929    12
